ALOS-2                  
1 39766U 14029A   26166.65124366  .00002149  00000+0  29458-3 0  9997
2 39766  97.9224 263.8366 0001652  92.4194 267.7207 14.79469729651352
KAZEOSAT 2              
1 40010U 14033A   26166.61338854  .00000127  00000+0  20487-4 0  9999
2 40010  97.5405   6.3091 0008044 335.2138  24.8691 14.85467657648727
HODOYOSHI-4             
1 40011U 14033B   26166.62202780  .00001162  00000+0  13132-3 0  9997
2 40011  97.5448 351.5205 0022567 314.0618  45.8740 14.88127131648575
DEIMOS-2                
1 40013U 14033D   26166.64241671  .00000688  00000+0  70178-4 0  9999
2 40013  97.5835  41.1860 0001524  47.7835 312.3514 14.93719533637496
HODOYOSHI-3             
1 40015U 14033F   26166.43355886  .00000887  00000+0  10814-3 0  9993
2 40015  97.6415 329.5447 0032871   3.0990 357.0423 14.85385240647360
SPOT 7                  
1 40053U 14034A   26166.60632957  .00000587  00000+0  12915-3 0  9993
2 40053  98.0635 229.1387 0001217  90.6188 269.5153 14.60957998636903
SKYSAT-B                
1 40072U 14037D   26166.57852692  .00001173  00000+0  13438-3 0  9996
2 40072  98.3839 125.4517 0004250 288.7759  71.2995 14.88024107645729
WORLDVIEW-3 (WV-3)      
1 40115U 14048A   26166.55023512  .00000707  00000+0  89059-4 0  9990
2 40115  97.8567 241.4056 0001116  28.4226 331.7050 14.85019669641661
GAOFEN-2                
1 40118U 14049A   26166.62229104  .00001091  00000+0  14814-3 0  9990
2 40118  98.0117 230.8310 0006031 232.8979 127.1683 14.80899648639002
YAOGAN-21               
1 40143U 14053A   26166.58922791  .00008642  00000+0  33463-3 0  9990
2 40143  97.1471 206.8934 0009923  98.0567 262.1799 15.26357139654714
YAOGAN-22               
1 40275U 14063A   26166.36046294 -.00000037  00000+0  25400-4 0  9992
2 40275 100.7721 317.6033 0006298 189.4107 170.6887 13.15531111559576
ASNARO                  
1 40298U 14070A   26166.64458876  .00007331  00000+0  34908-3 0  9994
2 40298  97.3460 242.8005 0005442 168.9472 191.1883 15.19416924643777
YAOGAN-24               
1 40310U 14072A   26166.65868921  .00000249  00000+0  43640-4 0  9993
2 40310  98.1483 303.9835 0012529 269.1226  90.8548 14.76220193623494
CBERS 4                 
1 40336U 14079A   26166.64317302  .00000257  00000+0  10401-3 0  9996
2 40336  98.3537 223.5231 0001880  64.6841 295.4540 14.35509176603736
YAOGAN-26               
1 40362U 14088A   26166.64614890  .00016912  00000+0  33283-3 0  9995
2 40362  97.0636 166.8902 0006081  70.5836 289.6072 15.47295111637460
SMAP                    
1 40376U 15003A   26166.57561225  .00000361  00000+0  79011-4 0  9994
2 40376  98.1276 173.6930 0001307  96.0954 264.0397 14.63365398607381
KOMPSAT-3A              
1 40536U 15014A   26166.63200127  .00021985  00000+0  31928-3 0  9991
2 40536  97.6884 157.8807 0056361 180.1350 179.9898 15.53929987621577
SENTINEL-2A             
1 40697U 15028A   26166.60629610  .00000402  00000+0  16996-3 0  9992
2 40697  98.5691 241.4804 0001106  88.2090 271.9219 14.30815930573509
GAOFEN-8                
1 40701U 15030A   26166.59901154  .00018828  00000+0  38827-3 0  9993
2 40701  97.6897 359.8741 0008542 192.6637 167.4398 15.45905535611200
CARBONITE 1 (CBNT-1)    
1 40718U 15032D   26166.63126072  .00001104  00000+0  13992-3 0  9991
2 40718  97.6498 344.7629 0013273 303.7200  56.2749 14.83581839589118
YAOGAN-27               
1 40878U 15040A   26166.58416494 -.00000527  00000+0 -12765-2 0  9997
2 40878 100.1144 153.0362 0007627 214.7448 145.3168 13.16067873517454
GAOFEN-9 01             
1 40894U 15047A   26166.64554407  .00000832  00000+0  10825-3 0  9999
2 40894  97.6275 202.4104 0028302 142.6662 217.6526 14.82881161579963
YAOGAN-28               
1 41026U 15064A   26166.61942840  .00005440  00000+0  20521-3 0  9999
2 41026  97.3074 304.9125 0010485 188.7087 171.3972 15.27403087590445
YAOGAN-29               
1 41038U 15069A   26166.62604635  .00000363  00000+0  51290-4 0  9992
2 41038  98.0025 195.2562 0002658  56.4390 303.7076 14.83083497570397
KENT RIDGE 1            
1 41167U 15077B   26166.65725319  .00003746  00000+0  12259-3 0  9999
2 41167  14.9790 277.3724 0008237 216.8531 143.1225 15.23124673580868
GAOFEN-4                
1 41194U 15083A   26166.61329403 -.00000333  00000+0  00000+0 0  9993
2 41194   0.3525  83.8201 0004370 115.0422  31.5199  1.00269466 38516
JASON-3                 
1 41240U 16002A   26166.60457317 -.00000067  00000+0 -19641-4 0  9993
2 41240  66.0401 129.1622 0008534 272.8783  87.1259 12.87628047487040
SENTINEL-3A             
1 41335U 16011A   26166.60357011  .00000089  00000+0  54955-4 0  9997
2 41335  98.6249 234.0099 0001395 102.2432 257.8905 14.26739563537833
ZIYUAN 3-02 (ZY 3-02)   
1 41556U 16033A   26166.54550022  .00004632  00000+0  20884-3 0  9997
2 41556  97.3839 242.3517 0011217 296.2641  63.7441 15.21468005557732
CARTOSAT-2C             
1 41599U 16040A   26166.61145091  .00003272  00000+0  15865-3 0  9998
2 41599  97.4492 226.6120 0009931 134.3357 225.8693 15.19182542553479
