OBJECT_NAME,OBJECT_ID,EPOCH,MEAN_MOTION,ECCENTRICITY,INCLINATION,RA_OF_ASC_NODE,ARG_OF_PERICENTER,MEAN_ANOMALY,EPHEMERIS_TYPE,CLASSIFICATION_TYPE,NORAD_CAT_ID,ELEMENT_SET_NO,REV_AT_EPOCH,BSTAR,MEAN_MOTION_DOT,MEAN_MOTION_DDOT
ALOS-2,2014-029A,2026-06-15T15:37:47.452224,14.79469729,.0001652,97.9224,263.8366,92.4194,267.7207,0,U,39766,999,65135,.29458414E-3,.2149E-4,0
KAZEOSAT 2,2014-033A,2026-06-15T14:43:16.769856,14.85467657,.00080441,97.5405,6.3091,335.2138,24.8691,0,U,40010,999,64872,.20487456E-4,.127E-5,0
HODOYOSHI-4,2014-033B,2026-06-15T14:55:43.201920,14.88127131,.0022567,97.5448,351.5205,314.0618,45.8740,0,U,40011,999,64857,.1313249E-3,.1162E-4,0
DEIMOS-2,2014-033D,2026-06-15T15:25:04.803744,14.93719533,.00015248,97.5835,41.1860,47.7835,312.3514,0,U,40013,999,63749,.70177627E-4,.688E-5,0
HODOYOSHI-3,2014-033F,2026-06-15T10:24:19.485504,14.85385240,.00328712,97.6415,329.5447,3.0990,357.0423,0,U,40015,999,64736,.10813508E-3,.887E-5,0
SPOT 7,2014-034A,2026-06-15T14:33:06.874848,14.60957998,.00012176,98.0635,229.1387,90.6188,269.5153,0,U,40053,999,63690,.12915409E-3,.587E-5,0
SKYSAT-B,2014-037D,2026-06-15T13:53:04.725888,14.88024107,.00042507,98.3839,125.4517,288.7759,71.2995,0,U,40072,999,64572,.13437994E-3,.1173E-4,0
WORLDVIEW-3 (WV-3),2014-048A,2026-06-15T13:12:20.314368,14.85019669,.00011167,97.8567,241.4056,28.4226,331.7050,0,U,40115,999,64166,.89059209E-4,.707E-5,0
GAOFEN-2,2014-049A,2026-06-15T14:56:05.945856,14.80899648,.00060314,98.0117,230.8310,232.8979,127.1683,0,U,40118,999,63900,.14813944E-3,.1091E-4,0
YAOGAN-21,2014-053A,2026-06-15T14:08:29.291424,15.26357139,.00099235,97.1471,206.8934,98.0567,262.1799,0,U,40143,999,65471,.33463404E-3,.8642E-4,0
YAOGAN-22,2014-063A,2026-06-15T08:39:03.998016,13.15531111,.00062985,100.7721,317.6033,189.4107,170.6887,0,U,40275,999,55957,.25400287E-4,-.37E-6,0
ASNARO,2014-070A,2026-06-15T15:28:12.468864,15.19416924,.0005442,97.3460,242.8005,168.9472,191.1883,0,U,40298,999,64377,.3490843E-3,.7331E-4,0
YAOGAN-24,2014-072A,2026-06-15T15:48:30.747744,14.76220193,.00125293,98.1483,303.9835,269.1226,90.8548,0,U,40310,999,62349,.4363994E-4,.249E-5,0
CBERS 4,2014-079A,2026-06-15T15:26:10.148928,14.35509176,.00018809,98.3537,223.5231,64.6841,295.4540,0,U,40336,999,60373,.104013E-3,.257E-5,0
YAOGAN-26,2014-088A,2026-06-15T15:30:27.264960,15.47295111,.00060814,97.0636,166.8902,70.5836,289.6072,0,U,40362,999,63746,.33282524E-3,.16912E-3,0
SMAP,2015-003A,2026-06-15T13:48:52.898400,14.63365398,.00013077,98.1276,173.6930,96.0954,264.0397,0,U,40376,999,60738,.79010877E-4,.361E-5,0
KOMPSAT-3A,2015-014A,2026-06-15T15:10:04.909728,15.53929987,.00563613,97.6884,157.8807,180.1350,179.9898,0,U,40536,999,62157,.31927655E-3,.21985E-3,0
SENTINEL-2A,2015-028A,2026-06-15T14:33:03.983040,14.30815930,.00011061,98.5691,241.4804,88.2090,271.9219,0,U,40697,999,57350,.16995883E-3,.402E-5,0
GAOFEN-8,2015-030A,2026-06-15T14:22:34.597056,15.45905535,.00085426,97.6897,359.8741,192.6637,167.4398,0,U,40701,999,61120,.3882662E-3,.18828E-3,0
CARBONITE 1 (CBNT-1),2015-032D,2026-06-15T15:09:00.926208,14.83581839,.00132732,97.6498,344.7629,303.7200,56.2749,0,U,40718,999,58911,.13992321E-3,.1104E-4,0
YAOGAN-27,2015-040A,2026-06-15T14:01:11.850816,13.16067873,.00076272,100.1144,153.0362,214.7448,145.3168,0,U,40878,999,51745,-.12764949E-2,-.527E-5,0
GAOFEN-9 01,2015-047A,2026-06-15T15:29:35.007648,14.82881161,.00283028,97.6275,202.4104,142.6662,217.6526,0,U,40894,999,57996,.10825347E-3,.832E-5,0
YAOGAN-28,2015-064A,2026-06-15T14:51:58.613760,15.27403087,.00104851,97.3074,304.9125,188.7087,171.3972,0,U,41026,999,59044,.20520933E-3,.544E-4,0
YAOGAN-29,2015-069A,2026-06-15T15:01:30.404640,14.83083497,.00026583,98.0025,195.2562,56.4390,303.7076,0,U,41038,999,57039,.51290171E-4,.363E-5,0
KENT RIDGE 1,2015-077B,2026-06-15T15:46:26.675616,15.23124673,.00082377,14.9790,277.3724,216.8531,143.1225,0,U,41167,999,58086,.12259081E-3,.3746E-4,0
GAOFEN-4,2015-083A,2026-06-15T14:43:08.604192,1.00269466,.00043704,0.3525,83.8201,115.0422,31.5199,0,U,41194,999,3851,0,-.333E-5,0
JASON-3,2016-002A,2026-06-15T14:30:35.121888,12.87628047,.00085342,66.0401,129.1622,272.8783,87.1259,0,U,41240,999,48704,-.19641384E-4,-.67E-6,0
SENTINEL-3A,2016-011A,2026-06-15T14:29:08.457504,14.26739563,.00013955,98.6249,234.0099,102.2432,257.8905,0,U,41335,999,53783,.54955056E-4,.89E-6,0
ZIYUAN 3-02 (ZY 3-02),2016-033A,2026-06-15T13:05:31.219008,15.21468005,.00112177,97.3839,242.3517,296.2641,63.7441,0,U,41556,999,55773,.20884053E-3,.4632E-4,0
CARTOSAT-2C,2016-040A,2026-06-15T14:40:29.358624,15.19182542,.00099315,97.4492,226.6120,134.3357,225.8693,0,U,41599,999,55347,.15864705E-3,.3272E-4,0
